NORAD_CAT_ID,OBJECT_NAME,OBJECT_TYPE,EPOCH,MEAN_MOTION,ECCENTRICITY,INCLINATION,RA_OF_ASC_NODE,ARG_OF_PERICENTER,MEAN_ANOMALY,BSTAR,MEAN_MOTION_DOT,MEAN_MOTION_DDOT,TLE_LINE0,TLE_LINE1,TLE_LINE2,SEMIMAJOR_AXIS,PERIOD,APOGEE,PERIGEE,DECAYED
51121.0,STARLINK-3399,PAYLOAD,2022-02-02 22:00:00,15.78087638,0.0001171,53.2172,200.9152,64.6786,86.5694,-0.0051206,-0.00811022,0.0,0 STARLINK-3399,1 51121U 22005T   22033.91667824 -.00811022  00000-0 -51206-2 0  9994,2 51121  53.2172 200.9152 0001171  64.6786  86.5694 15.78087638  2809,6713.996,91.25,336.647,335.075,0.0
51121.0,STARLINK-3399,PAYLOAD,2022-02-03 14:00:01,15.76922474,0.0001248,53.2176,197.5935,49.0491,290.391,-0.0054758,-0.00821942,0.0,0 STARLINK-3399,1 51121U 22005T   22034.58334491 -.00821942  00000-0 -54758-2 0  9996,2 51121  53.2176 197.5935 0001248  49.0491 290.3910 15.76922474  3764,6717.303000000001,91.317,340.006,338.33,0.0
51121.0,STARLINK-3399,PAYLOAD,2022-02-03 22:00:01,15.76334044,0.0001122,53.2174,195.9368,56.9114,15.635,-0.0055842,-0.00816949,0.0,0 STARLINK-3399,1 51121U 22005T   22034.91668981 -.00816949  00000-0 -55842-2 0  9993,2 51121  53.2174 195.9368 0001122  56.9114  15.6350 15.76334044  2961,6718.975,91.351,341.594,340.086,0.0
51121.0,STARLINK-3399,PAYLOAD,2022-02-04 14:00:01,15.75044825,0.0001537,53.2187,192.6258,58.0707,198.5197,-0.0048552,-0.00681981,0.0,0 STARLINK-3399,1 51121U 22005T   22035.58335648 -.00681981  00000-0 -48552-2 0  9994,2 51121  53.2187 192.6258 0001537  58.0707 198.5197 15.75044825  3929,6722.641,91.426,345.539,343.472,0.0
51121.0,STARLINK-3399,PAYLOAD,2022-02-04 20:00:01,15.74723369,0.0001326,53.2176,191.3853,56.9383,177.7735,-0.0059966,-0.0081712,0.0,0 STARLINK-3399,1 51121U 22005T   22035.83334491 -.00817120  00000-0 -59966-2 0  9994,2 51121  53.2176 191.3853 0001326  56.9383 177.7735 15.74723369  3964,6723.555,91.445,346.31199999999984,344.529,0.0
51121.0,STARLINK-3399,PAYLOAD,2022-02-04 22:00:00,15.7457942,0.0001192,53.2172,190.9718,50.6467,296.7304,-0.006065,-0.00820839,0.0,0 STARLINK-3399,1 51121U 22005T   22035.91667824 -.00820839  00000-0 -60650-2 0  9995,2 51121  53.2172 190.9718 0001192  50.6467 296.7304 15.74579420  3130,6723.965,91.453,346.63199999999995,345.029,0.0
51121.0,STARLINK-3399,PAYLOAD,2022-02-05 14:00:01,15.73252495,0.0001617,53.2175,187.6676,37.4742,129.6682,-0.0005507999999999,-0.0007739,0.0,0 STARLINK-3399,1 51121U 22005T   22036.58334491 -.00077390  00000-0 -55080-3 0  9998,2 51121  53.2175 187.6676 0001617  37.4742 129.6682 15.73252495  4076,6727.746,91.53,350.6980000000001,348.523,0.0
51121.0,STARLINK-3399,PAYLOAD,2022-02-06 00:00:00,15.73225957,0.0001644,53.2193,185.6211,29.5943,338.7764,0.00025966,0.00036018,0.0,0 STARLINK-3399,1 51121U 22005T   22037.00001157  .00036018  00000-0  25966-3 0  9996,2 51121  53.2193 185.6211 0001644  29.5943 338.7764 15.73225957  4149,6727.821,91.532,350.792,348.58,0.0
51121.0,STARLINK-3399,PAYLOAD,2022-02-06 19:47:08,15.73188041,0.0001426999999999,53.223,181.5403,89.3285,270.7898,-0.00035722,-0.00050428,0.0,0 STARLINK-3399,1 51121U 22005T   22037.82440416 -.00050428  00000-0 -35722-3 0  9995,2 51121  53.2230 181.5403 0001427  89.3285 270.7898 15.73188041  4270,6727.929,91.534,350.754,348.834,0.0
51121.0,STARLINK-3399,PAYLOAD,2022-02-07 14:04:53,15.73229114,0.0001889,53.2218,177.7676,106.2283,253.8946,0.00013812,0.00018831,0.0,0 STARLINK-3399,1 51121U 22005T   22038.58672732  .00018831  00000-0  13812-3 0  9993,2 51121  53.2218 177.7676 0001889 106.2283 253.8946 15.73229114  4390,6727.812,91.531,350.9480000000001,348.406,0.0
51121.0,STARLINK-3399,PAYLOAD,2022-02-09 11:49:17,15.73233317,0.0001683,53.2187,168.3386,57.0155,303.1026,6.9329e-05,9.134e-05,0.0,0 STARLINK-3399,1 51121U 22005T   22040.49255810  .00009134  00000-0  69329-4 0  9991,2 51121  53.2187 168.3386 0001683  57.0155 303.1026 15.73233317  4693,6727.8,91.531,350.797,348.533,0.0
51121.0,STARLINK-3399,PAYLOAD,2022-02-09 14:52:15,15.73219114,0.00019,53.2186,167.7103,30.6963,329.4168,2.04e-05,2.245e-05,0.0,0 STARLINK-3399,1 51121U 22005T   22040.61961913  .00002245  00000-0  20400-4 0  9996,2 51121  53.2186 167.7103 0001900  30.6963 329.4168 15.73219114  3605,6727.840999999999,91.532,350.9840000000001,348.427,0.0
51121.0,STARLINK-3399,PAYLOAD,2022-02-09 20:00:01,15.73226785,0.0002186,53.2184,166.6538,22.3356,108.9311,-0.00023571,-0.00033611,0.0,0 STARLINK-3399,1 51121U 22005T   22040.83334491 -.00033611  00000-0 -23571-3 0  9999,2 51121  53.2184 166.6538 0002186  22.3356 108.9311 15.73226785  4742,6727.819,91.532,351.155,348.213,0.0
51121.0,STARLINK-3399,PAYLOAD,2022-02-10 06:00:00,15.73205329,0.0002107,53.2174,164.5725,31.5608,300.6847,-1.2254000000000003e-05,-2.341e-05,0.0,0 STARLINK-3399,1 51121U 22005T   22041.25001157 -.00002341  00000-0 -12254-4 0  9999,2 51121  53.2174 164.5725 0002107  31.5608 300.6847 15.73205329  4815,6727.88,91.533,351.163,348.327,0.0
51121.0,STARLINK-3399,PAYLOAD,2022-02-10 13:44:27,15.73237676,0.0002255,53.2183,162.9942,21.1895,338.9218,0.00032372,0.00045132,0.0,0 STARLINK-3399,1 51121U 22005T   22041.57253628  .00045132  00000-0  32372-3 0  9991,2 51121  53.2183 162.9942 0002255  21.1895 338.9218 15.73237676  3753,6727.788000000001,91.531,351.17,348.136,0.0
51121.0,STARLINK-3399,PAYLOAD,2022-02-10 14:00:01,15.73276072,0.0002154,53.2183,162.9423,18.6026,42.812,-0.00067675,-0.00094854,0.0,0 STARLINK-3399,1 51121U 22005T   22041.58335648 -.00094854  00000-0 -67675-3 0  9996,2 51121  53.2183 162.9423 0002154  18.6026  42.8120 15.73276072  4861,6727.678000000001,91.529,350.992,348.094,0.0
51121.0,STARLINK-3399,PAYLOAD,2022-02-10 20:00:01,15.73217212,0.0002315,53.2178,161.7056,15.8595,22.3102,8.0875e-05,0.00010752,0.0,0 STARLINK-3399,1 51121U 22005T   22041.83335648  .00010752  00000-0  80875-4 0  9995,2 51121  53.2178 161.7056 0002315  15.8595  22.3102 15.73217212  4902,6727.846,91.532,351.269,348.154,0.0
51121.0,STARLINK-3399,PAYLOAD,2022-02-10 22:00:00,15.7325354,0.0002258,53.2179,161.2927,16.8796,133.4532,-0.00052524,-0.00073869,0.0,0 STARLINK-3399,1 51121U 22005T   22041.91667824 -.00073869  00000-0 -52524-3 0  9997,2 51121  53.2179 161.2927 0002258  16.8796 133.4532 15.73253540  3718,6727.743,91.53,351.12699999999984,348.088,0.0
51121.0,STARLINK-3399,PAYLOAD,2022-02-11 14:00:01,15.73270555,0.000236,53.2184,157.9938,19.1699,309.12,-0.00035586,-0.00050424,0.0,0 STARLINK-3399,1 51121U 22005T   22042.58334491 -.00050424  00000-0 -35586-3 0  9993,2 51121  53.2184 157.9938 0002360  19.1699 309.1200 15.73270555  5025,6727.694,91.529,351.147,347.971,0.0
51121.0,STARLINK-3399,PAYLOAD,2022-02-11 14:08:06,15.73256644,0.0002277,53.2187,157.9647,20.4934,339.6178,0.000297,0.00041371,0.0,0 STARLINK-3399,1 51121U 22005T   22042.58895898  .00041371  00000-0  29700-3 0  9996,2 51121  53.2187 157.9647 0002277  20.4934 339.6178 15.73256644  3910,6727.734,91.53,351.131,348.06699999999995,0.0
51121.0,STARLINK-3399,PAYLOAD,2022-02-11 22:00:01,15.73284064,0.0002467,53.2184,156.344,16.6994,40.6371,-0.00070128,-0.00098269,0.0,0 STARLINK-3399,1 51121U 22005T   22042.91668981 -.00098269  00000-0 -70128-3 0  9994,2 51121  53.2184 156.3440 0002467  16.6994  40.6371 15.73284064  3736,6727.656,91.528,351.18,347.861,0.0
51121.0,STARLINK-3399,PAYLOAD,2022-02-12 13:00:17,15.73197668,0.0002726,53.2183,153.2493,13.0601,347.0490000000001,0.00021696,0.00029937,0.0,0 STARLINK-3399,1 51121U 22005T   22043.54186510  .00029937  00000-0  21696-3 0  9997,2 51121  53.2183 153.2493 0002726  13.0601 347.0490 15.73197668  5172,6727.901999999999,91.533,351.601,347.93300000000005,0.0
51121.0,STARLINK-3399,PAYLOAD,2022-02-12 22:00:00,15.73060033,0.0002585,53.2181,151.3962,19.1484,304.8041,0.00080798,0.00113645,0.0,0 STARLINK-3399,1 51121U 22005T   22043.91667824  .00113645  00000-0  80798-3 0  9998,2 51121  53.2181 151.3962 0002585  19.1484 304.8041 15.73060033  5234,6728.294,91.541,351.899,348.42,0.0
51121.0,STARLINK-3399,PAYLOAD,2022-02-13 04:00:01,15.73136422,0.0002563,53.2177,150.1514,27.7822,272.9321,0.00071938,0.00101297,0.0,0 STARLINK-3399,1 51121U 22005T   22044.16668981  .00101297  00000-0  71938-3 0  9997,2 51121  53.2177 150.1514 0002563  27.7822 272.9321 15.73136422  5272,6728.076,91.537,351.666,348.217,0.0
51121.0,STARLINK-3399,PAYLOAD,2022-02-13 14:00:01,15.73233366,0.0002839,53.2168,148.09799999999996,25.7652,116.0192,-3.5536999999999995e-05,-5.615e-05,0.0,0 STARLINK-3399,1 51121U 22005T   22044.58334491 -.00005615  00000-0 -35537-4 0  9994,2 51121  53.2168 148.0980 0002839  25.7652 116.0192 15.73233366  3727,6727.8,91.531,351.575,347.755,0.0
51121.0,STARLINK-3399,PAYLOAD,2022-02-13 22:00:00,15.73255266,0.000274,53.2164,146.4479,20.1114,210.6469,-0.00093819,-0.00130607,0.0,0 STARLINK-3399,1 51121U 22005T   22044.91667824 -.00130607  00000-0 -93819-3 0  9996,2 51121  53.2164 146.4479 0002740  20.1114 210.6469 15.73255266  5397,6727.738,91.53,351.446,347.759,0.0
51121.0,STARLINK-3399,PAYLOAD,2022-02-14 06:00:00,15.73156321,0.0002574,53.2167,144.7973,18.6245,301.0622,0.00047345,0.00066232,0.0,0 STARLINK-3399,1 51121U 22005T   22045.25001157  .00066232  00000-0  47345-3 0  9998,2 51121  53.2167 144.7973 0002574  18.6245 301.0622 15.73156321  5446,6728.02,91.536,351.616,348.153,0.0
51121.0,STARLINK-3399,PAYLOAD,2022-02-14 12:00:02,15.7322093,0.0002755,53.2164,143.5619,15.9753,280.447,-0.00056002,-0.00078575,0.0,0 STARLINK-3399,1 51121U 22005T   22045.50002315 -.00078575  00000-0 -56002-3 0  9998,2 51121  53.2164 143.5619 0002755  15.9753 280.4470 15.73220930  5485,6727.8359999999975,91.532,351.55400000000014,347.847,0.0
51121.0,STARLINK-3399,PAYLOAD,2022-02-14 14:00:01,15.7319401,0.0002808,53.2165,143.1501,15.3928,33.2022,-0.00026351,-0.00037438,0.0,0 STARLINK-3399,1 51121U 22005T   22045.58334491 -.00037438  00000-0 -26351-3 0  9996,2 51121  53.2165 143.1501 0002808  15.3928  33.2022 15.73194010  3720,6727.9119999999975,91.534,351.666,347.88800000000015,0.0
